[{"OBJECT_NAME":"STARLINK-30494","OBJECT_ID":"2023-151G","EPOCH":"2026-03-09T08:39:06.366240","MEAN_MOTION":15.28417441,"ECCENTRICITY":0.00011553,"INCLINATION":43.0027,"RA_OF_ASC_NODE":192.4566,"ARG_OF_PERICENTER":241.5536,"MEAN_ANOMALY":118.52,"EPHEMERIS_TYPE":0,"CLASSIFICATION_TYPE":"U","NORAD_CAT_ID":57970,"ELEMENT_SET_NO":999,"REV_AT_EPOCH":13740,"BSTAR":-3.569111e-5,"MEAN_MOTION_DOT":-1.272e-5,"MEAN_MOTION_DDOT":0},{"OBJECT_NAME":"STARLINK-35796","OBJECT_ID":"2025-265AB","EPOCH":"2026-03-09T23:03:38.767968","MEAN_MOTION":15.27599979,"ECCENTRICITY":0.00010863,"INCLINATION":43.0032,"RA_OF_ASC_NODE":276.5118,"ARG_OF_PERICENTER":274.2351,"MEAN_ANOMALY":85.8377,"EPHEMERIS_TYPE":0,"CLASSIFICATION_TYPE":"U","NORAD_CAT_ID":66541,"ELEMENT_SET_NO":999,"REV_AT_EPOCH":1715,"BSTAR":0.0014177642,"MEAN_MOTION_DOT":0.00038982,"MEAN_MOTION_DDOT":0}]
