STARLINK-30494          
1 57970U 23151G   26068.36049035 -.00001272  00000+0 -35691-4 0  9993
2 57970  43.0027 192.4566 0001155 241.5536 118.5200 15.28417441137406
STARLINK-35796          
1 66541U 25265AB  26068.96086537  .00038982  00000+0  14178-2 0  9990
2 66541  43.0032 276.5118 0001086 274.2351  85.8377 15.27599979 17150
